start=new Date('2021-11-08T00:00:00.000Z').valueOf();
sats=[{"PERIAPSIS":"546.340","COUNTRY_CODE":"US","MEAN_MOTION":"15.06375075","TLE_LINE2":"2 48646  53.0552  27.7833 0001371  65.0067 295.1064 15.06375075 25122","INCLINATION":"53.0552","OBJECT_NAME":"STARLINK-2732","FILE":"3207836","RA_OF_ASC_NODE":"27.7833","NORAD_CAT_ID":"48646","GP_ID":"189217631","ELEMENT_SET_NO":"999","TIME_SYSTEM":"UTC","OBJECT_TYPE":"PAYLOAD","APOAPSIS":"548.239","MEAN_ANOMALY":"295.1064","EPOCH":"2021-11-07T17:32:27.978432","BSTAR":"0.00016243000000","CENTER_NAME":"EARTH","MEAN_MOTION_DDOT":"0.0000000000000","OBJECT_ID":"2021-044J","MEAN_MOTION_DOT":"0.00002137","RCS_SIZE":"LARGE","REV_AT_EPOCH":"2512","PERIOD":"95.594","CLASSIFICATION_TYPE":"U","REF_FRAME":"TEME","EPHEMERIS_TYPE":"0","ARG_OF_PERICENTER":"65.0067","LAUNCH_DATE":"2021-05-26","MEAN_ELEMENT_THEORY":"SGP4","SEMIMAJOR_AXIS":"6925.425","DECAY_DATE":null,"SITE":"AFETR","TLE_LINE1":"1 48646U 21044J   21311.73087938  .00002137  00000-0  16243-3 0  9994","ECCENTRICITY":"0.00013710"},{"RCS_SIZE":"LARGE","MEAN_MOTION_DOT":"0.00007760","OBJECT_ID":"2021-044K","PERIOD":"95.595","REV_AT_EPOCH":"2510","APOAPSIS":"548.219","OBJECT_TYPE":"PAYLOAD","MEAN_ANOMALY":"288.0693","CENTER_NAME":"EARTH","MEAN_MOTION_DDOT":"0.0000000000000","EPOCH":"2021-11-07T14:16:05.143872","BSTAR":"0.00053986000000","FILE":"3207836","OBJECT_NAME":"STARLINK-2691","INCLINATION":"53.0560","TIME_SYSTEM":"UTC","ELEMENT_SET_NO":"999","GP_ID":"189217515","NORAD_CAT_ID":"48647","RA_OF_ASC_NODE":"28.4053","MEAN_MOTION":"15.06360766","COUNTRY_CODE":"US","PERIAPSIS":"546.449","TLE_LINE2":"2 48647  53.0560  28.4053 0001278  72.0435 288.0693 15.06360766 25105","ECCENTRICITY":"0.00012780","SITE":"AFETR","TLE_LINE1":"1 48647U 21044K   21311.59450398  .00007760  00000-0  53986-3 0  9995","MEAN_ELEMENT_THEORY":"SGP4","DECAY_DATE":null,"SEMIMAJOR_AXIS":"6925.469","REF_FRAME":"TEME","CLASSIFICATION_TYPE":"U","LAUNCH_DATE":"2021-05-26","EPHEMERIS_TYPE":"0","ARG_OF_PERICENTER":"72.0435"},{"REV_AT_EPOCH":"2510","PERIOD":"95.593","OBJECT_ID":"2021-044L","RCS_SIZE":"LARGE","MEAN_MOTION_DOT":"0.00014577","EPOCH":"2021-11-07T14:14:41.949312","BSTAR":"0.00099587000000","CENTER_NAME":"EARTH","MEAN_MOTION_DDOT":"0.0000000000000","MEAN_ANOMALY":"290.6164","OBJECT_TYPE":"PAYLOAD","APOAPSIS":"548.294","NORAD_CAT_ID":"48648","RA_OF_ASC_NODE":"28.4064","TIME_SYSTEM":"UTC","ELEMENT_SET_NO":"999","GP_ID":"189217742","OBJECT_NAME":"STARLINK-2521","FILE":"3207836","INCLINATION":"53.0560","TLE_LINE2":"2 48648  53.0560  28.4064 0001490  69.4984 290.6164 15.06384306 25101","PERIAPSIS":"546.230","MEAN_MOTION":"15.06384306","COUNTRY_CODE":"US","ECCENTRICITY":"0.00014900","TLE_LINE1":"1 48648U 21044L   21311.59354108  .00014577  00000-0  99587-3 0  9999","SITE":"AFETR","SEMIMAJOR_AXIS":"6925.397","DECAY_DATE":null,"MEAN_ELEMENT_THEORY":"SGP4","EPHEMERIS_TYPE":"0","ARG_OF_PERICENTER":"69.4984","LAUNCH_DATE":"2021-05-26","CLASSIFICATION_TYPE":"U","REF_FRAME":"TEME"},{"REF_FRAME":"TEME","CLASSIFICATION_TYPE":"U","LAUNCH_DATE":"2021-05-26","ARG_OF_PERICENTER":"73.3567","EPHEMERIS_TYPE":"0","MEAN_ELEMENT_THEORY":"SGP4","DECAY_DATE":null,"SEMIMAJOR_AXIS":"6925.414","SITE":"AFETR","TLE_LINE1":"1 48649U 21044M   21311.72351164  .00024740  00000-0  16749-2 0  9995","ECCENTRICITY":"0.00013520","MEAN_MOTION":"15.06378622","COUNTRY_CODE":"US","PERIAPSIS":"546.343","TLE_LINE2":"2 48649  53.0530  27.8307 0001352  73.3567 286.7570 15.06378622 25112","OBJECT_NAME":"STARLINK-2673","FILE":"3207836","INCLINATION":"53.0530","TIME_SYSTEM":"UTC","ELEMENT_SET_NO":"999","GP_ID":"189217042","NORAD_CAT_ID":"48649","RA_OF_ASC_NODE":"27.8307","OBJECT_TYPE":"PAYLOAD","MEAN_ANOMALY":"286.7570","APOAPSIS":"548.215","CENTER_NAME":"EARTH","MEAN_MOTION_DDOT":"0.0000000000000","BSTAR":"0.00167490000000","EPOCH":"2021-11-07T17:21:51.405696","RCS_SIZE":"LARGE","MEAN_MOTION_DOT":"0.00024740","OBJECT_ID":"2021-044M","PERIOD":"95.593","REV_AT_EPOCH":"2511"},{"ECCENTRICITY":"0.00013690","TLE_LINE1":"1 48650U 21044N   21311.71982300  .00020715  00000-0  14065-2 0  9995","SITE":"AFETR","SEMIMAJOR_AXIS":"6925.432","DECAY_DATE":null,"MEAN_ELEMENT_THEORY":"SGP4","EPHEMERIS_TYPE":"0","ARG_OF_PERICENTER":"65.6270","LAUNCH_DATE":"2021-05-26","CLASSIFICATION_TYPE":"U","REF_FRAME":"TEME","REV_AT_EPOCH":"2511","PERIOD":"95.594","OBJECT_ID":"2021-044N","MEAN_MOTION_DOT":"0.00020715","RCS_SIZE":"LARGE","EPOCH":"2021-11-07T17:16:32.707200","BSTAR":"0.00140650000000","CENTER_NAME":"EARTH","MEAN_MOTION_DDOT":"0.0000000000000","MEAN_ANOMALY":"294.4862","OBJECT_TYPE":"PAYLOAD","APOAPSIS":"548.245","RA_OF_ASC_NODE":"27.8403","NORAD_CAT_ID":"48650","GP_ID":"189217275","ELEMENT_SET_NO":"999","TIME_SYSTEM":"UTC","INCLINATION":"53.0556","FILE":"3207836","OBJECT_NAME":"STARLINK-2672","TLE_LINE2":"2 48650  53.0556  27.8403 0001369  65.6270 294.4862 15.06372838 25115","PERIAPSIS":"546.349","COUNTRY_CODE":"US","MEAN_MOTION":"15.06372838"},{"SITE":"AFETR","TLE_LINE1":"1 48651U 21044P   21311.71613554 -.00001315  00000-0 -69401-4 0  9991","ECCENTRICITY":"0.00011710","CLASSIFICATION_TYPE":"U","REF_FRAME":"TEME","EPHEMERIS_TYPE":"0","ARG_OF_PERICENTER":"85.3216","LAUNCH_DATE":"2021-05-26","MEAN_ELEMENT_THEORY":"SGP4","SEMIMAJOR_AXIS":"6925.370","DECAY_DATE":null,"OBJECT_TYPE":"PAYLOAD","MEAN_ANOMALY":"274.7907","APOAPSIS":"548.046","BSTAR":"-0.00006940100000","EPOCH":"2021-11-07T17:11:14.110656","MEAN_MOTION_DDOT":"0.0000000000000","CENTER_NAME":"EARTH","OBJECT_ID":"2021-044P","MEAN_MOTION_DOT":"-0.00001315","RCS_SIZE":"LARGE","REV_AT_EPOCH":"2511","PERIOD":"95.593","PERIAPSIS":"546.424","COUNTRY_CODE":"US","MEAN_MOTION":"15.06393067","TLE_LINE2":"2 48651  53.0558  27.8502 0001171  85.3216 274.7907 15.06393067 25116","INCLINATION":"53.0558","FILE":"3207836","OBJECT_NAME":"STARLINK-2731","RA_OF_ASC_NODE":"27.8502","NORAD_CAT_ID":"48651","ELEMENT_SET_NO":"999","GP_ID":"189217158","TIME_SYSTEM":"UTC"},{"COUNTRY_CODE":"US","MEAN_MOTION":"15.06395540","PERIAPSIS":"546.261","TLE_LINE2":"2 48652  53.0571  28.4625 0001395  76.0483 284.0662 15.06395540 25093","INCLINATION":"53.0571","OBJECT_NAME":"STARLINK-2727","FILE":"3207836","GP_ID":"189217853","ELEMENT_SET_NO":"999","TIME_SYSTEM":"UTC","RA_OF_ASC_NODE":"28.4625","NORAD_CAT_ID":"48652","APOAPSIS":"548.193","OBJECT_TYPE":"PAYLOAD","MEAN_ANOMALY":"284.0662","MEAN_MOTION_DDOT":"0.0000000000000","CENTER_NAME":"EARTH","EPOCH":"2021-11-07T13:54:49.607712","BSTAR":"-0.00007608200000","MEAN_MOTION_DOT":"-0.00001414","RCS_SIZE":"LARGE","OBJECT_ID":"2021-044Q","PERIOD":"95.592","REV_AT_EPOCH":"2509","REF_FRAME":"TEME","CLASSIFICATION_TYPE":"U","LAUNCH_DATE":"2021-05-26","EPHEMERIS_TYPE":"0","ARG_OF_PERICENTER":"76.0483","MEAN_ELEMENT_THEORY":"SGP4","DECAY_DATE":null,"SEMIMAJOR_AXIS":"6925.362","SITE":"AFETR","TLE_LINE1":"1 48652U 21044Q   21311.57974083 -.00001414  00000-0 -76082-4 0  9996","ECCENTRICITY":"0.00013950"},{"ECCENTRICITY":"0.00013030","TLE_LINE1":"1 48653U 21044R   21311.70877370  .00014181  00000-0  96979-3 0  9992","SITE":"AFETR","DECAY_DATE":null,"SEMIMAJOR_AXIS":"6925.441","MEAN_ELEMENT_THEORY":"SGP4","LAUNCH_DATE":"2021-05-26","ARG_OF_PERICENTER":"67.4454","EPHEMERIS_TYPE":"0","REF_FRAME":"TEME","CLASSIFICATION_TYPE":"U","PERIOD":"95.594","REV_AT_EPOCH":"2511","MEAN_MOTION_DOT":"0.00014181","RCS_SIZE":"LARGE","OBJECT_ID":"2021-044R","CENTER_NAME":"EARTH","MEAN_MOTION_DDOT":"0.0000000000000","EPOCH":"2021-11-07T17:00:38.047680","BSTAR":"0.00096979000000","OBJECT_TYPE":"PAYLOAD","APOAPSIS":"548.208","MEAN_ANOMALY":"292.6672","ELEMENT_SET_NO":"999","GP_ID":"189217399","TIME_SYSTEM":"UTC","RA_OF_ASC_NODE":"27.8868","NORAD_CAT_ID":"48653","INCLINATION":"53.0558","OBJECT_NAME":"STARLINK-2720","FILE":"3207836","TLE_LINE2":"2 48653  53.0558  27.8868 0001303  67.4454 292.6672 15.06369980 25110","COUNTRY_CODE":"US","MEAN_MOTION":"15.06369980","PERIAPSIS":"546.403"},{"PERIAPSIS":"546.461","COUNTRY_CODE":"US","MEAN_MOTION":"15.06377788","TLE_LINE2":"2 48654  53.0571  27.9168 0001185  71.2674 288.8444 15.06377788 25114","INCLINATION":"53.0571","OBJECT_NAME":"STARLINK-2651","FILE":"3207836","RA_OF_ASC_NODE":"27.9168","NORAD_CAT_ID":"48654","GP_ID":"189217632","ELEMENT_SET_NO":"999","TIME_SYSTEM":"UTC","APOAPSIS":"548.102","OBJECT_TYPE":"PAYLOAD","MEAN_ANOMALY":"288.8444","BSTAR":"-0.00014818000000","EPOCH":"2021-11-07T16:55:18.236352","MEAN_MOTION_DDOT":"0.0000000000000","CENTER_NAME":"EARTH","OBJECT_ID":"2021-044S","MEAN_MOTION_DOT":"-0.00002486","RCS_SIZE":"LARGE","REV_AT_EPOCH":"2511","PERIOD":"95.594","CLASSIFICATION_TYPE":"U","REF_FRAME":"TEME","ARG_OF_PERICENTER":"71.2674","EPHEMERIS_TYPE":"0","LAUNCH_DATE":"2021-05-26","MEAN_ELEMENT_THEORY":"SGP4","SEMIMAJOR_AXIS":"6925.417","DECAY_DATE":null,"SITE":"AFETR","TLE_LINE1":"1 48654U 21044S   21311.70507218 -.00002486  00000-0 -14818-3 0  9993","ECCENTRICITY":"0.00011850"},{"REF_FRAME":"TEME","CLASSIFICATION_TYPE":"U","LAUNCH_DATE":"2021-05-26","EPHEMERIS_TYPE":"0","ARG_OF_PERICENTER":"71.5616","MEAN_ELEMENT_THEORY":"SGP4","DECAY_DATE":null,"SEMIMAJOR_AXIS":"6925.438","SITE":"AFETR","TLE_LINE1":"1 48655U 21044T   21311.70139893  .00004135  00000-0  29655-3 0  9990","ECCENTRICITY":"0.00013790","MEAN_MOTION":"15.06370879","COUNTRY_CODE":"US","PERIAPSIS":"546.348","TLE_LINE2":"2 48655  53.0565  27.9248 0001379  71.5616 288.5523 15.06370879 25110","FILE":"3207836","OBJECT_NAME":"STARLINK-2657","INCLINATION":"53.0565","TIME_SYSTEM":"UTC","ELEMENT_SET_NO":"999","GP_ID":"189217516","NORAD_CAT_ID":"48655","RA_OF_ASC_NODE":"27.9248","OBJECT_TYPE":"PAYLOAD","APOAPSIS":"548.258","MEAN_ANOMALY":"288.5523","CENTER_NAME":"EARTH","MEAN_MOTION_DDOT":"0.0000000000000","BSTAR":"0.00029655000000","EPOCH":"2021-11-07T16:50:00.867552","RCS_SIZE":"LARGE","MEAN_MOTION_DOT":"0.00004135","OBJECT_ID":"2021-044T","PERIOD":"95.594","REV_AT_EPOCH":"2511"}];
